302P/Lemmon-PANSTARRS,e,6.0356,121.7155,208.6266,4.267488,0.1118010,0.22937598,4.9857,04/23.0/2025,2000,g 12.5,4.0
# From MPC 92278
303P/NEAT,e,7.0162,347.9506,357.0288,5.040026,0.0871074,0.51029513,333.6140,04/23.0/2025,2000,g 13.5,4.0
# From MPEC 2022-K19
304P/Ory,e,2.6057,58.9387,335.2781,3.149732,0.1763168,0.60085886,301.9578,04/23.0/2025,2000,g 16.5,4.0
# From MPC182890
305P/Skiff,e,11.6710,240.1025,147.4112,4.636960,0.0987084,0.69409668,15.4829,04/23.0/2025,2000,g 18.0,4.0
# From MPC 92278
306P/LINEAR,e,8.3028,341.3525,0.8962,3.124485,0.1784581,0.59258098,342.0388,04/23.0/2025,2000,g 19.0,4.0
# From MPC 92278
307P/LINEAR,e,4.4347,158.1173,222.2515,5.788000,0.0707801,0.67505091,266.6270,04/23.0/2025,2000,g 15.0,4.0
# From MPEC 2022-C56
308P/Lagerkvist-Carsenty,e,4.8523,63.0990,333.7561,6.601101,0.0581138,0.36421368,210.9792,04/23.0/2025,2000,g 13.0,2.0
# From MPEC 2025-GB9
309P/LINEAR,e,17.0202,10.1385,49.9164,4.374636,0.1077187,0.61823727,42.0150,04/23.0/2025,2000,g 15.0,4.0
# From MPC182891
310P/Hill,e,13.1201,8.8837,31.5220,4.181182,0.1152804,0.42210583,63.1544,04/23.0/2025,2000,g 13.5,4.0
# From MPEC 2024-A43
311P/PANSTARRS,e,4.9712,279.1693,144.2850,2.188639,0.3043987,0.11551662,145.2318,04/23.0/2025,2000,g 17.0,4.0
# From MPEC 2024-NE4
312P/NEAT,e,19.7463,144.6375,207.7009,3.472328,0.1523256,0.42670103,254.6698,04/23.0/2025,2000,g 16.0,4.0
# From MPEC 2024-N80
313P/Gibbs,e,10.9810,105.9253,254.9818,3.163410,0.1751745,0.23449163,320.8100,04/23.0/2025,2000,g 15.0,4.0
# From MPC105243
314P/Montani,e,3.9920,267.6229,213.8612,7.249252,0.0504968,0.41852608,157.2310,04/23.0/2025,2000,g  9.5,4.0
# From MPEC 2023-J29
315P/LONEOS,e,17.7344,68.6435,65.9048,4.936437,0.0898636,0.52205053,275.7500,04/23.0/2025,2000,g 11.0,4.0
# From MPC182891
316P/LONEOS-Christensen,e,9.8770,245.9016,187.2099,4.411324,0.1063777,0.15707888,21.1742,04/23.0/2025,2000,g 13.5,4.0
# From MPEC 2020-C98
317P/WISE,e,11.9747,275.4729,334.8836,2.959625,0.1935749,0.57200895,323.0537,04/23.0/2025,2000,g 17.5,4.0
# From MPC102103
318P/McNaught-Hartley,e,17.8656,35.6011,313.3075,7.514426,0.0478476,0.67335636,166.0361,04/23.0/2025,2000,g  8.5,6.0
# From MPC 97499
319P/Catalina-McNaught,e,15.0957,111.3475,203.6161,3.562602,0.1465727,0.66635490,164.0693,04/23.0/2025,2000,g 15.0,4.0
# From MPC 96281
320P/McNaught,e,4.9027,295.9401,0.7568,3.095904,0.1809351,0.68486351,282.0387,04/23.0/2025,2000,g 20.5,4.0
# From MPC105243
321P/SOHO,e,20.0546,165.0265,172.7405,2.422074,0.2614707,0.98100525,0.0000,10/26.5241/2023,2000,g 20.0,4.0
# From MPC102103
322P/SOHO,e,11.4502,351.3594,57.0621,2.508644,0.2480536,0.97993697,0.0000,08/21.1566/2023,2000,g 19.0,4.0
# From MPC182891
323P/SOHO,e,5.2105,323.9512,353.3238,2.440090,0.2585802,0.98344427,0.0000,03/14.2305/2025,2000,g 20.0,4.0
# From MPEC 2024-F21
323P-B/SOHO,e,5.4593,323.4627,353.9650,2.889946,0.2006178,0.98611798,0.0000,12/16.2448/2025,2000,g 26.0,4.0
# From MPEC 2024-F21
323P-C/SOHO,e,5.3372,324.1905,353.2108,2.611971,0.2334811,0.98476461,0.0000,04/07.1004/2025,2000,g 27.0,4.0
# From MPEC 2021-W31
324P/LaSagra,e,21.3992,270.5692,57.4321,3.097151,0.1808258,0.15281542,262.3887,04/23.0/2025,2000,g 13.0,4.0
# From MPEC 2024-LE0
325P/Yang-Gao,e,16.8484,256.8558,344.9233,3.549040,0.1474137,0.58739673,165.9188,04/23.0/2025,2000,g 14.0,4.0
# From MPEC 2024-LE0
326P/Hill,e,2.4736,99.7601,278.1517,4.065587,0.1202318,0.32046806,57.8783,04/23.0/2025,2000,g 13.5,4.0
# From MPEC 2024-M41
327P/VanNess,e,36.2321,173.9983,185.0419,3.563002,0.1465480,0.56254948,141.2836,04/23.0/2025,2000,g 16.0,4.0
# From MPEC 2024-YC7
328P/LONEOS-Tucker,e,17.6759,341.5635,30.6803,4.190926,0.1148786,0.55310934,30.9084,04/23.0/2025,2000,g 14.5,4.0
# From MPC101101
329P/LINEAR-Catalina,e,21.7191,87.6877,343.5986,5.182338,0.0835440,0.67888582,286.0146,04/23.0/2025,2000,g 13.5,4.0
# From MPEC 2023-J29
330P/Catalina,e,15.7395,293.0833,188.8338,6.615353,0.0579261,0.55052782,182.8923,04/23.0/2025,2000,g 12.0,4.0
# From MPEC 2024-Q20
331P/Gibbs,e,9.7406,216.7430,185.5652,3.003026,0.1893937,0.04144755,313.5160,04/23.0/2025,2000,g 12.0,4.0
# From MPEC 2016-K18
332P/Ikeya-Murakami,e,9.3856,3.7544,152.2965,3.086133,0.1817950,0.48981389,244.2437,04/23.0/2025,2000,g 18.0,4.0
# From MPEC 2016-K18
332P-A/Ikeya-Murakami,e,9.3856,152.3142,3.7376,3.086117,0.1817965,0.48982110,244.2425,04/23.0/2025,2000,g  9.0,4.0
# From MPEC 2016-EI8
332P-B/Ikeya-Murakami,e,9.3805,3.8028,152.3711,3.082329,0.1821317,0.48970701,359.9699,03/17.0/2016,2000,g 19.0,4.0
# From MPEC 2016-K18
332P-C/Ikeya-Murakami,e,9.3846,152.3055,3.7380,3.086083,0.1817995,0.48982664,244.2607,04/23.0/2025,2000,g 16.5,4.0
# From MPEC 2016-ED0
332P-D/Ikeya-Murakami,e,9.3761,3.7923,152.4393,3.081138,0.1822373,0.48977814,359.9486,03/17.0/2016,2000,g 19.0,4.0
# From MPEC 2016-ED0
332P-E/Ikeya-Murakami,e,9.3774,3.8228,152.2825,3.079877,0.1823493,0.48922008,359.9889,03/17.0/2016,2000,g 21.0,4.0
# From MPEC 2016-ED0
332P-F/Ikeya-Murakami,e,9.5293,3.4757,152.8203,3.163214,0.1751908,0.49918860,359.8501,03/17.0/2016,2000,g 21.0,4.0
# From MPEC 2016-ED0
332P-G/Ikeya-Murakami,e,9.2523,3.6955,154.4000,3.050519,0.1849880,0.49200362,359.9006,03/19.0/2016,2000,g 19.0,4.0
# From MPC100285
332P-H/Ikeya-Murakami,e,9.3851,152.3061,3.7377,3.086264,0.1817835,0.48986254,244.1739,04/23.0/2025,2000,g 19.0,4.0
# From MPEC 2016-ED0
332P-I/Ikeya-Murakami,e,9.3791,3.8048,152.3297,3.081767,0.1821815,0.48955490,359.9360,03/17.0/2016,2000,g 20.5,2.0
# From MPEC 2016-EI8
332P-J/Ikeya-Murakami,e,9.4296,3.6729,152.7712,3.115165,0.1792596,0.49429435,359.8613,03/17.0/2016,2000,g 20.5,2.0
# From MPC182891
333P/LINEAR,e,132.0223,115.7068,26.0193,4.220354,0.1136791,0.73628523,16.4496,04/23.0/2025,2000,g 15.0,4.0
# From MPEC 2023-J29
334P/NEAT,e,20.3654,90.3762,90.0606,6.824895,0.0552790,0.35188871,159.1906,04/23.0/2025,2000,g 10.5,4.0
# From MPEC 2023-M14
335P/Gibbs,e,7.2974,330.7932,162.3187,3.577275,0.1456719,0.54684037,143.4175,04/23.0/2025,2000,g 16.8,4.0
# From MPC105244
336P/McNaught,e,17.8608,298.1779,308.6598,5.036181,0.0872072,0.44569922,262.5032,04/23.0/2025,2000,g 13.5,4.0
# From MPEC 2024-A43
337P/WISE,e,16.8311,102.2914,165.8389,3.329546,0.1622283,0.48837441,166.7743,04/23.0/2025,2000,g 17.0,4.0
# From MPC182891
338P/McNaught,e,25.3768,9.7609,4.6270,3.895666,0.1281833,0.41274016,33.6704,04/23.0/2025,2000,g 12.0,4.0
# From MPC101101
339P/Gibbs,e,5.7343,27.4601,172.6750,3.698620,0.1385621,0.63577021,83.2807,04/23.0/2025,2000,g 17.0,4.0
# From MPC133426
340P/Boattini,e,2.0790,291.6594,36.0660,4.247187,0.1126035,0.28000868,345.5572,04/23.0/2025,2000,g 14.3,4.0
# From MPEC 2023-J29
341P/Gibbs,e,3.7964,29.9530,312.3610,4.285024,0.1111154,0.41507341,0.0327,04/23.0/2025,2000,g 12.5,4.0
# From MPC101101
342P/SOHO,e,11.6914,73.3123,27.6470,3.040838,0.1858721,0.98297894,0.0000,02/07.6801/2027,2000,g  9.0,4.0
# From MPEC 2024-PC5
343P/NEAT-LONEOS,e,5.5976,257.0544,137.6081,5.457881,0.0772979,0.58487129,231.9549,04/23.0/2025,2000,g 14.0,4.0
# From MPEC 2023-J29
344P/Read,e,3.4996,273.1014,140.6198,4.855201,0.0921283,0.42375579,284.1965,04/23.0/2025,2000,g 13.0,4.0
# From MPEC 2024-TP3
345P/LINEAR,e,2.7280,154.5098,196.7326,4.031816,0.1217455,0.22128880,28.6246,04/23.0/2025,2000,g 12.0,4.0
# From MPEC 2022-K19
346P/Catalina,e,22.2194,102.4582,336.0714,4.468073,0.1043575,0.50391543,311.4485,04/23.0/2025,2000,g 14.0,4.0
# From MPEC 2024-RQ6
347P/PANSTARRS,e,11.7662,260.9924,98.1142,3.600545,0.1442619,0.38691095,92.8631,04/23.0/2025,2000,g 15.0,4.0
# From MPEC 2022-ED3
348P/PANSTARRS,e,17.7423,312.9134,135.7710,3.151646,0.1761562,0.30749477,205.1389,04/23.0/2025,2000,g 14.0,4.0
# From MPEC 2024-LE0
349P/Lemmon,e,5.4891,331.7392,255.7552,3.578110,0.1456208,0.29858880,48.2055,04/23.0/2025,2000,g 14.0,4.0
# From MPEC 2025-GB9
350P/McNaught,e,7.3655,65.2953,140.0385,4.080848,0.1195579,0.09468795,320.7497,04/23.0/2025,2000,g 14.0,4.0
# From MPC105244
351P/Wiegert-PANSTARRS,e,12.7746,352.6658,283.2874,4.440575,0.1053284,0.29470147,2.9262,04/23.0/2025,2000,g 12.5,4.0
# From MPEC 2023-J29
352P/Skiff,e,21.0047,28.0466,309.3768,6.655320,0.0574051,0.61603941,164.4721,04/23.0/2025,2000,g 13.2,4.0
# From MPEC 2020-AA5
353P/McNaught,e,28.4189,121.5103,230.4873,4.170855,0.1157088,0.46972706,309.7283,04/23.0/2025,2000,g 14.5,4.0
# From MPEC 2024-EF7
354P/LINEAR,e,5.2507,320.0598,132.9291,2.290340,0.2843506,0.12445391,158.3172,04/23.0/2025,2000,g 15.5,4.0
# From MPEC 2023-CD7
355P/LINEAR-NEAT,e,11.0459,51.4255,336.2648,3.467400,0.1526505,0.50797463,59.0356,04/23.0/2025,2000,g 15.5,2.0
# From MPEC 2022-F14
356P/WISE,e,9.6417,160.7923,226.2113,4.152517,0.1164761,0.35589095,311.6270,04/23.0/2025,2000,g 14.0,4.0
# From MPC114609
357P/Hill,e,6.3128,44.5697,1.5014,4.455079,0.1048144,0.43603249,263.6122,04/23.0/2025,2000,g 15.5,4.0
# From MPEC 2024-EF7
358P/PANSTARRS,e,11.0668,85.6675,299.3489,3.145908,0.1766384,0.23947949,93.6932,04/23.0/2025,2000,g 18.0,4.0
# From MPC110086
359P/LONEOS,e,10.2619,149.7475,200.2853,4.642401,0.0985349,0.32314726,275.9081,04/23.0/2025,2000,g 13.5,4.0
# From MPEC 2025-A40
360P/WISE,e,24.1063,2.1668,354.3104,3.698452,0.1385716,0.49931999,27.8795,04/23.0/2025,2000,g 19.5,6.0
# From MPEC 2023-CD7
361P/Spacewatch,e,13.8980,203.2318,219.1263,4.933006,0.0899573,0.43954500,223.2161,04/23.0/2025,2000,g 12.0,4.0
# From MPEC 2025-GB9
363P/Lemmon,e,5.3939,146.7588,340.7594,3.574555,0.1458381,0.51855556,23.4481,04/23.0/2025,2000,g 17.5,4.0
# From MPEC 2024-M41
364P/PANSTARRS,e,11.9082,45.8757,212.7665,2.900341,0.1995402,0.71796156,141.8619,04/23.0/2025,2000,g 17.0,2.0
# From MPC111775
365P/PANSTARRS,e,9.8500,86.6564,67.4149,3.156299,0.1757668,0.58162948,98.6942,04/23.0/2025,2000,g 17.0,4.0
# From MPC114610
366P/Spacewatch,e,8.8568,70.7231,152.9947,3.500307,0.1505029,0.34863324,12.3578,04/23.0/2025,2000,g 15.0,4.0
# From MPC112395
367P/Catalina,e,8.4592,58.6613,172.6835,3.511671,0.1497729,0.28012735,15.1976,04/23.0/2025,2000,g 17.5,2.0
# From MPC114610
